[{"OBJECT_NAME":"STARLINK-1669","OBJECT_ID":"2021-012E","EPOCH":"2026-03-09T22:00:01.999584","MEAN_MOTION":15.7520865,"ECCENTRICITY":0.00087944,"INCLINATION":53.0368,"RA_OF_ASC_NODE":350.7855,"ARG_OF_PERICENTER":92.6287,"MEAN_ANOMALY":29.9444,"EPHEMERIS_TYPE":0,"CLASSIFICATION_TYPE":"U","NORAD_CAT_ID":47624,"ELEMENT_SET_NO":999,"REV_AT_EPOCH":578,"BSTAR":0.0017201852,"MEAN_MOTION_DOT":0.00271838,"MEAN_MOTION_DDOT":0},{"OBJECT_NAME":"STARLINK-36577","OBJECT_ID":"2026-016Y","EPOCH":"2026-03-09T15:51:55.882944","MEAN_MOTION":15.7534177,"ECCENTRICITY":0.00011581,"INCLINATION":97.2845,"RA_OF_ASC_NODE":129.2216,"ARG_OF_PERICENTER":68.834,"MEAN_ANOMALY":291.3049,"EPHEMERIS_TYPE":0,"CLASSIFICATION_TYPE":"U","NORAD_CAT_ID":67583,"ELEMENT_SET_NO":999,"REV_AT_EPOCH":680,"BSTAR":0.0025674633,"MEAN_MOTION_DOT":0.00404173,"MEAN_MOTION_DDOT":0}]
